{"type": "FeatureCollection", "features": [ {"type": "Feature", "properties": {"norad_id": 66530, "name": "STARLINK-35961", "group": "last-30-days", "lat": -42.59679560101775, "lon": -4.184899437049223, "alt_km": 404.25470728032633, "timestamp": "2025-12-08T21:31:03.447274+00:00", "meta": {"OBJECT_NAME": "STARLINK-35961", "OBJECT_ID": "2025-265Q", "EPOCH": "2025-12-08T14:00:01.999872", "MEAN_MOTION": 15.56459399, "ECCENTRICITY": 0.00015425, "INCLINATION": 43.0005, "RA_OF_ASC_NODE": 78.2976, "ARG_OF_PERICENTER": 280.0985, "MEAN_ANOMALY": 40.482, "EPHEMERIS_TYPE": 0, "CLASSIFICATION_TYPE": "U", "NORAD_CAT_ID": 66530, "ELEMENT_SET_NO": 999, "REV_AT_EPOCH": 432, "BSTAR": -0.031819958, "MEAN_MOTION_DOT": -0.02062405, "MEAN_MOTION_DDOT": 0}, "tle": {"line1": "1 66530U 25265Q   25342.58335648 -.02062405  00000+0 -31820-1 0  9993", "line2": "2 66530  43.0005  78.2976 0001542 280.0985  40.4820 15.56459399  4320"}}, "geometry": {"type": "Point", "coordinates": [-4.184899437049223, -42.59679560101775]}}, {"type": "Feature", "properties": {"norad_id": 66531, "name": "STARLINK-35960", "group": "last-30-days", "lat": -42.3555678876067, "lon": -1.6178033338271938, "alt_km": 404.2630994775336, "timestamp": "2025-12-08T21:31:03.447287+00:00", "meta": {"OBJECT_NAME": "STARLINK-35960", "OBJECT_ID": "2025-265R", "EPOCH": "2025-12-08T14:00:01.999872", "MEAN_MOTION": 15.56454655, "ECCENTRICITY": 0.00015133, "INCLINATION": 43.0002, "RA_OF_ASC_NODE": 78.2928, "ARG_OF_PERICENTER": 281.997, "MEAN_ANOMALY": 40.5007, "EPHEMERIS_TYPE": 0, "CLASSIFICATION_TYPE": "U", "NORAD_CAT_ID": 66531, "ELEMENT_SET_NO": 999, "REV_AT_EPOCH": 432, "BSTAR": -0.031690961, "MEAN_MOTION_DOT": -0.02054596, "MEAN_MOTION_DDOT": 0}, "tle": {"line1": "1 66531U 25265R   25342.58335648 -.02054596  00000+0 -31691-1 0  9992", "line2": "2 66531  43.0002  78.2928 0001513 281.9970  40.5007 15.56454655  4325"}}, "geometry": {"type": "Point", "coordinates": [-1.6178033338271938, -42.3555678876067]}}, {"type": "Feature", "properties": {"norad_id": 66532, "name": "STARLINK-35914", "group": "last-30-days", "lat": -42.0567382688341, "lon": 0.93110870418994, "alt_km": 404.35742545361154, "timestamp": "2025-12-08T21:31:03.447297+00:00", "meta": {"OBJECT_NAME": "STARLINK-35914", "OBJECT_ID": "2025-265S", "EPOCH": "2025-12-08T14:00:01.999872", "MEAN_MOTION": 15.56457845, "ECCENTRICITY": 0.00013449, "INCLINATION": 42.9998, "RA_OF_ASC_NODE": 78.2879, "ARG_OF_PERICENTER": 280.7823, "MEAN_ANOMALY": 43.6297, "EPHEMERIS_TYPE": 0, "CLASSIFICATION_TYPE": "U", "NORAD_CAT_ID": 66532, "ELEMENT_SET_NO": 999, "REV_AT_EPOCH": 432, "BSTAR": -0.031730245, "MEAN_MOTION_DOT": -0.02056981, "MEAN_MOTION_DDOT": 0}, "tle": {"line1": "1 66532U 25265S   25342.58335648 -.02056981  00000+0 -31730-1 0  9997", "line2": "2 66532  42.9998  78.2879 0001344 280.7823  43.6297 15.56457845  4328"}}, "geometry": {"type": "Point", "coordinates": [0.93110870418994, -42.0567382688341]}}, {"type": "Feature", "properties": {"norad_id": 66533, "name": "STARLINK-35707", "group": "last-30-days", "lat": -41.70195019566193, "lon": 3.456134985833627, "alt_km": 404.2273900779137, "timestamp": "2025-12-08T21:31:03.447309+00:00", "meta": {"OBJECT_NAME": "STARLINK-35707", "OBJECT_ID": "2025-265T", "EPOCH": "2025-12-08T14:00:01.999872", "MEAN_MOTION": 15.56460384, "ECCENTRICITY": 0.00015139, "INCLINATION": 42.9998, "RA_OF_ASC_NODE": 78.2832, "ARG_OF_PERICENTER": 279.8345, "MEAN_ANOMALY": 46.4956, "EPHEMERIS_TYPE": 0, "CLASSIFICATION_TYPE": "U", "NORAD_CAT_ID": 66533, "ELEMENT_SET_NO": 999, "REV_AT_EPOCH": 432, "BSTAR": -0.031821945, "MEAN_MOTION_DOT": -0.02062571, "MEAN_MOTION_DDOT": 0}, "tle": {"line1": "1 66533U 25265T   25342.58335648 -.02062571  00000+0 -31822-1 0  9992", "line2": "2 66533  42.9998  78.2832 0001513 279.8345  46.4956 15.56460384  4329"}}, "geometry": {"type": "Point", "coordinates": [3.456134985833627, -41.70195019566193]}}, {"type": "Feature", "properties": {"norad_id": 66534, "name": "STARLINK-35976", "group": "last-30-days", "lat": -41.29301925694048, "lon": 5.948974181399023, "alt_km": 404.177051178448, "timestamp": "2025-12-08T21:31:03.447319+00:00", "meta": {"OBJECT_NAME": "STARLINK-35976", "OBJECT_ID": "2025-265U", "EPOCH": "2025-12-08T14:00:01.999872", "MEAN_MOTION": 15.56458186, "ECCENTRICITY": 0.00015633, "INCLINATION": 43, "RA_OF_ASC_NODE": 78.279, "ARG_OF_PERICENTER": 280.8136, "MEAN_ANOMALY": 47.435, "EPHEMERIS_TYPE": 0, "CLASSIFICATION_TYPE": "U", "NORAD_CAT_ID": 66534, "ELEMENT_SET_NO": 999, "REV_AT_EPOCH": 432, "BSTAR": -0.031782921, "MEAN_MOTION_DOT": -0.02060194, "MEAN_MOTION_DDOT": 0}, "tle": {"line1": "1 66534U 25265U   25342.58335648 -.02060194  00000+0 -31783-1 0  9998", "line2": "2 66534  43.0000  78.2790 0001563 280.8136  47.4350 15.56458186  4320"}}, "geometry": {"type": "Point", "coordinates": [5.948974181399023, -41.29301925694048]}}, {"type": "Feature", "properties": {"norad_id": 66535, "name": "STARLINK-35514", "group": "last-30-days", "lat": -40.830323085234625, "lon": 8.411624774639366, "alt_km": 404.27686109733713, "timestamp": "2025-12-08T21:31:03.447332+00:00", "meta": {"OBJECT_NAME": "STARLINK-35514", "OBJECT_ID": "2025-265V", "EPOCH": "2025-12-08T14:00:01.999872", "MEAN_MOTION": 15.56467978, "ECCENTRICITY": 0.00014081, "INCLINATION": 43.0005, "RA_OF_ASC_NODE": 78.2737, "ARG_OF_PERICENTER": 278.0513, "MEAN_ANOMALY": 52.1124, "EPHEMERIS_TYPE": 0, "CLASSIFICATION_TYPE": "U", "NORAD_CAT_ID": 66535, "ELEMENT_SET_NO": 999, "REV_AT_EPOCH": 432, "BSTAR": -0.032067574, "MEAN_MOTION_DOT": -0.0207722, "MEAN_MOTION_DDOT": 0}, "tle": {"line1": "1 66535U 25265V   25342.58335648 -.02077220  00000+0 -32068-1 0  9994", "line2": "2 66535  43.0005  78.2737 0001408 278.0513  52.1124 15.56467978  4324"}}, "geometry": {"type": "Point", "coordinates": [8.411624774639366, -40.830323085234625]}}, {"type": "Feature", "properties": {"norad_id": 66536, "name": "STARLINK-35640", "group": "last-30-days", "lat": -40.316454882607616, "lon": 10.833125194280058, "alt_km": 404.1955400037459, "timestamp": "2025-12-08T21:31:03.447345+00:00", "meta": {"OBJECT_NAME": "STARLINK-35640", "OBJECT_ID": "2025-265W", "EPOCH": "2025-12-08T14:00:01.999872", "MEAN_MOTION": 15.56466859, "ECCENTRICITY": 0.00014924, "INCLINATION": 43.0004, "RA_OF_ASC_NODE": 78.269, "ARG_OF_PERICENTER": 281.313, "MEAN_ANOMALY": 50.768, "EPHEMERIS_TYPE": 0, "CLASSIFICATION_TYPE": "U", "NORAD_CAT_ID": 66536, "ELEMENT_SET_NO": 999, "REV_AT_EPOCH": 430, "BSTAR": -0.032049717, "MEAN_MOTION_DOT": -0.02076167, "MEAN_MOTION_DDOT": 0}, "tle": {"line1": "1 66536U 25265W   25342.58335648 -.02076167  00000+0 -32050-1 0  9995", "line2": "2 66536  43.0004  78.2690 0001492 281.3130  50.7680 15.56466859  4303"}}, "geometry": {"type": "Point", "coordinates": [10.833125194280058, -40.316454882607616]}}, {"type": "Feature", "properties": {"norad_id": 66537, "name": "STARLINK-35582", "group": "last-30-days", "lat": -39.75275306901454, "lon": 13.215395244465293, "alt_km": 404.2589847151112, "timestamp": "2025-12-08T21:31:03.447355+00:00", "meta": {"OBJECT_NAME": "STARLINK-35582", "OBJECT_ID": "2025-265X", "EPOCH": "2025-12-08T14:00:01.999872", "MEAN_MOTION": 15.56456936, "ECCENTRICITY": 0.00013496, "INCLINATION": 43.0001, "RA_OF_ASC_NODE": 78.2645, "ARG_OF_PERICENTER": 281.7581, "MEAN_ANOMALY": 52.2407, "EPHEMERIS_TYPE": 0, "CLASSIFICATION_TYPE": "U", "NORAD_CAT_ID": 66537, "ELEMENT_SET_NO": 999, "REV_AT_EPOCH": 432, "BSTAR": -0.031728217, "MEAN_MOTION_DOT": -0.02056804, "MEAN_MOTION_DDOT": 0}, "tle": {"line1": "1 66537U 25265X   25342.58335648 -.02056804  00000+0 -31728-1 0  9993", "line2": "2 66537  43.0001  78.2645 0001349 281.7581  52.2407 15.56456936  4327"}}, "geometry": {"type": "Point", "coordinates": [13.215395244465293, -39.75275306901454]}}, {"type": "Feature", "properties": {"norad_id": 66538, "name": "STARLINK-35577", "group": "last-30-days", "lat": -39.14052743125794, "lon": 15.560162774266633, "alt_km": 404.24425818138934, "timestamp": "2025-12-08T21:31:03.447365+00:00", "meta": {"OBJECT_NAME": "STARLINK-35577", "OBJECT_ID": "2025-265Y", "EPOCH": "2025-12-08T14:00:01.999872", "MEAN_MOTION": 15.56468001, "ECCENTRICITY": 0.00013505, "INCLINATION": 43.0004, "RA_OF_ASC_NODE": 78.259, "ARG_OF_PERICENTER": 283.6851, "MEAN_ANOMALY": 52.2287, "EPHEMERIS_TYPE": 0, "CLASSIFICATION_TYPE": "U", "NORAD_CAT_ID": 66538, "ELEMENT_SET_NO": 999, "REV_AT_EPOCH": 432, "BSTAR": -0.032086505, "MEAN_MOTION_DOT": -0.02078277, "MEAN_MOTION_DDOT": 0}, "tle": {"line1": "1 66538U 25265Y   25342.58335648 -.02078277  00000+0 -32087-1 0  9991", "line2": "2 66538  43.0004  78.2590 0001350 283.6851  52.2287 15.56468001  4325"}}, "geometry": {"type": "Point", "coordinates": [15.560162774266633, -39.14052743125794]}}, {"type": "Feature", "properties": {"norad_id": 66539, "name": "STARLINK-35697", "group": "last-30-days", "lat": -38.48166145909175, "lon": 17.86321080310733, "alt_km": 404.1509889369636, "timestamp": "2025-12-08T21:31:03.447377+00:00", "meta": {"OBJECT_NAME": "STARLINK-35697", "OBJECT_ID": "2025-265Z", "EPOCH": "2025-12-08T14:00:01.999872", "MEAN_MOTION": 15.56465476, "ECCENTRICITY": 0.00014478, "INCLINATION": 43.0004, "RA_OF_ASC_NODE": 78.2539, "ARG_OF_PERICENTER": 281.8353, "MEAN_ANOMALY": 55.9956, "EPHEMERIS_TYPE": 0, "CLASSIFICATION_TYPE": "U", "NORAD_CAT_ID": 66539, "ELEMENT_SET_NO": 999, "REV_AT_EPOCH": 432, "BSTAR": -0.031991822, "MEAN_MOTION_DOT": -0.02072697, "MEAN_MOTION_DDOT": 0}, "tle": {"line1": "1 66539U 25265Z   25342.58335648 -.02072697  00000+0 -31992-1 0  9996", "line2": "2 66539  43.0004  78.2539 0001447 281.8353  55.9956 15.56465476  4329"}}, "geometry": {"type": "Point", "coordinates": [17.86321080310733, -38.48166145909175]}}]}